[{"OBJECT_NAME":"ION SCV-011","OBJECT_ID":"2023-084AB","EPOCH":"2026-03-09T22:35:16.566144","MEAN_MOTION":15.27752464,"ECCENTRICITY":0.00079323,"INCLINATION":98.1356,"RA_OF_ASC_NODE":247.1056,"ARG_OF_PERICENTER":30.3898,"MEAN_ANOMALY":329.7798,"EPHEMERIS_TYPE":0,"CLASSIFICATION_TYPE":"U","NORAD_CAT_ID":56957,"ELEMENT_SET_NO":999,"REV_AT_EPOCH":15065,"BSTAR":0.0002590454,"MEAN_MOTION_DOT":6.943e-5,"MEAN_MOTION_DDOT":0},{"OBJECT_NAME":"STARLINK-31356","OBJECT_ID":"2024-031D","EPOCH":"2026-03-09T22:57:02.865888","MEAN_MOTION":15.30192166,"ECCENTRICITY":0.00012234,"INCLINATION":53.1588,"RA_OF_ASC_NODE":267.6032,"ARG_OF_PERICENTER":80.6378,"MEAN_ANOMALY":279.4761,"EPHEMERIS_TYPE":0,"CLASSIFICATION_TYPE":"U","NORAD_CAT_ID":58968,"ELEMENT_SET_NO":999,"REV_AT_EPOCH":11696,"BSTAR":1.3017387e-5,"MEAN_MOTION_DOT":2.6e-7,"MEAN_MOTION_DDOT":0}]
